IRIDIUM 136             
1 42962U 17061H   24120.91595858  .00000308  00000+0  10279-3 0  9999
2 42962  86.3994 350.5033 0002450  85.0598 275.0877 14.34215275343289
